NORAD_CAT_ID,OBJECT_NAME,OBJECT_TYPE,EPOCH,MEAN_MOTION,ECCENTRICITY,INCLINATION,RA_OF_ASC_NODE,ARG_OF_PERICENTER,MEAN_ANOMALY,BSTAR,MEAN_MOTION_DOT,MEAN_MOTION_DDOT,TLE_LINE0,TLE_LINE1,TLE_LINE2,SEMIMAJOR_AXIS,PERIOD,APOGEE,PERIGEE,DECAYED
53394.0,STARLINK-4544,PAYLOAD,2023-09-04 10:30:38,15.10467899,0.0001358,53.2162,271.5373,91.3807,268.7342,2.8128e-05,1.76e-06,0.0,0 STARLINK-4544,1 53394U 22097G   23247.43794833  .00000176  00000-0  28128-4 0  9992,2 53394  53.2162 271.5373 0001358  91.3807 268.7342 15.10467899 60343,6912.909,95.335,535.713,533.835,0.0
53394.0,STARLINK-4544,PAYLOAD,2023-09-05 11:55:10,15.10406086,0.0001868,53.2162,266.7723,94.7326,265.3881,0.0011142,0.00018268,0.0,0 STARLINK-4544,1 53394U 22097G   23248.49665398  .00018268  00000-0  11142-2 0  9999,2 53394  53.2162 266.7723 0001868  94.7326 265.3881 15.10406086 59853,6913.098,95.339,536.254,533.671,0.0
53394.0,STARLINK-4544,PAYLOAD,2023-09-05 23:02:07,15.1047163,0.0001349,53.2163,264.6865,95.7642,264.3505,0.00016026,2.376e-05,0.0,0 STARLINK-4544,1 53394U 22097G   23248.95981312  .00002376  00000-0  16026-3 0  9997,2 53394  53.2163 264.6865 0001349  95.7642 264.3505 15.10471630 59921,6912.898,95.334,535.695,533.83,0.0
53394.0,STARLINK-4544,PAYLOAD,2023-09-06 18:05:31,15.10477166,0.0001338,53.2162,261.1118,87.847,272.2676,0.00010456,1.449e-05,0.0,0 STARLINK-4544,1 53394U 22097G   23249.75383186  .00001449  00000-0  10456-3 0  9992,2 53394  53.2162 261.1118 0001338  87.8470 272.2676 15.10477166 60695,6912.881,95.334,535.671,533.821,0.0
53394.0,STARLINK-4544,PAYLOAD,2023-09-07 02:01:55,15.10475999,0.0001436,53.2151,259.6229,89.3361,270.7796,5.0908e-05,5.55e-06,0.0,0 STARLINK-4544,1 53394U 22097G   23250.08467532  .00000555  00000-0  50908-4 0  9992,2 53394  53.2151 259.6229 0001436  89.3361 270.7796 15.10475999 60095,6912.884,95.334,535.742,533.757,0.0
53394.0,STARLINK-4544,PAYLOAD,2023-09-07 08:23:03,15.10478872,0.0001358,53.2162,258.4318,96.1464,263.9683,4.6944e-05,4.89e-06,0.0,0 STARLINK-4544,1 53394U 22097G   23250.34934576  .00000489  00000-0  46944-4 0  9999,2 53394  53.2162 258.4318 0001358  96.1464 263.9683 15.10478872 60784,6912.876,95.334,535.679,533.802,0.0
53394.0,STARLINK-4544,PAYLOAD,2023-09-08 06:37:00,15.10483125,0.00014,53.2161,254.2627,87.5577,272.5576,7.5792e-05,9.7e-06,0.0,0 STARLINK-4544,1 53394U 22097G   23251.27569596  .00000970  00000-0  75792-4 0  9996,2 53394  53.2161 254.2627 0001400  87.5577 272.5576 15.10483125 60275,6912.863,95.334,535.695,533.76,0.0
53394.0,STARLINK-4544,PAYLOAD,2023-09-08 17:43:58,15.1047935,0.0001414,53.2162,252.1788,86.9822,273.1333,0.00012779,1.836e-05,0.0,0 STARLINK-4544,1 53394U 22097G   23251.73887323  .00001836  00000-0  12779-3 0  9995,2 53394  53.2162 252.1788 0001414  86.9822 273.1333 15.10479350 60994,6912.874,95.334,535.717,533.762,0.0
53394.0,STARLINK-4544,PAYLOAD,2023-09-09 00:05:06,15.10476761,0.0001448,53.2163,250.9885,86.6511,273.4647,0.00010253,1.415e-05,0.0,0 STARLINK-4544,1 53394U 22097G   23252.00354901  .00001415  00000-0  10253-3 0  9995,2 53394  53.2163 250.9885 0001448  86.6511 273.4647 15.10476761 60385,6912.882,95.334,535.748,533.746,0.0
53394.0,STARLINK-4544,PAYLOAD,2023-09-09 11:12:04,15.10481795,0.0001474,53.2168,248.9024,95.8517,264.2644,0.00010417,1.442e-05,0.0,0 STARLINK-4544,1 53394U 22097G   23252.46672268  .00001442  00000-0  10417-3 0  9996,2 53394  53.2168 248.9024 0001474  95.8517 264.2644 15.10481795 61108,6912.867,95.334,535.751,533.713,0.0
53394.0,STARLINK-4544,PAYLOAD,2023-09-09 23:54:20,15.10463796,0.0001593,53.217,246.5197,102.2616,257.8555,0.00014253,2.08e-05,0.0,0 STARLINK-4544,1 53394U 22097G   23252.99607567  .00002080  00000-0  14253-3 0  9995,2 53394  53.2170 246.5197 0001593 102.2616 257.8555 15.10463796 60537,6912.922,95.335,535.888,533.685,0.0
53394.0,STARLINK-4544,PAYLOAD,2023-09-10 09:26:02,15.10476861,0.0001617,53.2174,244.7325,100.3028,259.8148,3.7417e-05,3.3e-06,0.0,0 STARLINK-4544,1 53394U 22097G   23253.39308159  .00000330  00000-0  37417-4 0  9999,2 53394  53.2174 244.7325 0001617 100.3028 259.8148 15.10476861 60590,6912.882,95.334,535.864,533.629,0.0
53394.0,STARLINK-4544,PAYLOAD,2023-09-11 06:04:42,15.10479259,0.000142,53.2169,240.8626,94.398,265.7175,5.8491e-05,6.81e-06,0.0,0 STARLINK-4544,1 53394U 22097G   23254.25326590  .00000681  00000-0  58491-4 0  9998,2 53394  53.2169 240.8626 0001420  94.3980 265.7175 15.10479259 61373,6912.874,95.334,535.721,533.758,0.0
53394.0,STARLINK-4544,PAYLOAD,2023-09-11 15:36:23,15.10480719,0.0001426,53.217,239.076,94.352,265.7636,4.8415e-05,5.14e-06,0.0,0 STARLINK-4544,1 53394U 22097G   23254.65027368  .00000514  00000-0  48415-4 0  9993,2 53394  53.2170 239.0760 0001426  94.3520 265.7636 15.10480719 60789,6912.87,95.334,535.721,533.749,0.0
53394.0,STARLINK-4544,PAYLOAD,2023-09-12 02:43:22,15.10474377,0.0001379,53.2169,236.9911,92.3162,267.7988,4.6973e-05,4.89e-06,0.0,0 STARLINK-4544,1 53394U 22097G   23255.11345685  .00000489  00000-0  46973-4 0  9998,2 53394  53.2169 236.9911 0001379  92.3162 267.7988 15.10474377 60851,6912.889,95.334,535.708,533.801,0.0
53394.0,STARLINK-4544,PAYLOAD,2023-09-12 09:04:30,15.10477078,0.0001355,53.217,235.8,91.7482,268.3666,6.2349e-05,7.46e-06,0.0,0 STARLINK-4544,1 53394U 22097G   23255.37812758  .00000746  00000-0  62349-4 0  9997,2 53394  53.2170 235.8000 0001355  91.7482 268.3666 15.10477078 61540,6912.881,95.334,535.683,533.809,0.0
53394.0,STARLINK-4544,PAYLOAD,2023-09-13 02:32:48,15.10346006,0.0001106,53.2167,232.5253,117.0886,243.022,-0.00094532,-0.00015938,0.0,0 STARLINK-4544,1 53394U 22097G   23256.10611195 -.00015938  00000-0 -94532-3 0  9990,2 53394  53.2167 232.5253 0001106 117.0886 243.0220 15.10346006 61007,6913.281,95.342,535.911,534.381,0.0
53394.0,STARLINK-4544,PAYLOAD,2023-09-13 05:43:34,15.10187007,0.000129,53.2171,231.9307,87.7371,272.377,-0.0021973,-0.00036397,0.0,0 STARLINK-4544,1 53394U 22097G   23256.23859865 -.00036397  00000-0 -21973-2 0  9992,2 53394  53.2171 231.9307 0001290  87.7371 272.3770 15.10187007 61022,6913.766,95.352,536.523,534.739,0.0
53394.0,STARLINK-4544,PAYLOAD,2023-09-13 13:40:17,15.10014019,0.0001481,53.2172,230.4431,93.6202,266.496,-0.0034003,-0.00055748,0.0,0 STARLINK-4544,1 53394U 22097G   23256.56965070 -.00055748  00000-0 -34003-2 0  9993,2 53394  53.2172 230.4431 0001481  93.6202 266.4960 15.10014019 61720,6914.294,95.363,537.183,535.135,0.0
53394.0,STARLINK-4544,PAYLOAD,2023-09-13 15:15:36,15.10015885,0.0001706,53.2172,230.1451,70.9494,289.1683,-0.0032959,-0.00054062,0.0,0 STARLINK-4544,1 53394U 22097G   23256.63583395 -.00054062  00000-0 -32959-2 0  9993,2 53394  53.2172 230.1451 0001706  70.9494 289.1683 15.10015885 61085,6914.289,95.363,537.333,534.974,0.0
53394.0,STARLINK-4544,PAYLOAD,2023-09-13 21:37:05,15.09815038,0.0002003,53.217,228.9548,92.7558,267.3664,-0.0046855,-0.00076078,0.0,0 STARLINK-4544,1 53394U 22097G   23256.90076125 -.00076078  00000-0 -46855-2 0  9992,2 53394  53.2170 228.9548 0002003  92.7558 267.3664 15.09815038 61778,6914.902,95.376,538.152,535.382,0.0
53394.0,STARLINK-4544,PAYLOAD,2023-09-14 02:23:12,15.09700408,0.0002606,53.2168,228.0621,18.5983,341.5104,-0.0053522,-0.00086468,0.0,0 STARLINK-4544,1 53394U 22097G   23257.09944565 -.00086468  00000-0 -53522-2 0  9998,2 53394  53.2168 228.0621 0002606  18.5983 341.5104 15.09700408 61155,6915.252,95.383,538.919,535.315,0.0
53394.0,STARLINK-4544,PAYLOAD,2023-09-14 14:00:01,15.08847556,0.0001536,53.2147,225.8876,89.0511,22.5756,-0.0021206,-0.00033886,0.0,0 STARLINK-4544,1 53394U 22097G   23257.58335648 -.00033886  00000-0 -21206-2 0  9998,2 53394  53.2147 225.8876 0001536  89.0511  22.5756 15.08847556 61222,6917.857,95.437,540.785,538.66,0.0
53394.0,STARLINK-4544,PAYLOAD,2023-09-14 22:00:00,15.0883318,0.0001597,53.2149,224.3905,95.2335,27.918,0.0007559,0.0001176,0.0,0 STARLINK-4544,1 53394U 22097G   23257.91667824  .00011760  00000-0  75590-3 0  9990,2 53394  53.2149 224.3905 0001597  95.2335  27.9180 15.08833180  5812,6917.901,95.438,540.871,538.661,0.0
53394.0,STARLINK-4544,PAYLOAD,2023-09-15 06:00:00,15.08833941,0.000148,53.2149,222.8959,85.275,49.4702,-0.00082083,-0.00013326,0.0,0 STARLINK-4544,1 53394U 22097G   23258.25001157 -.00013326  00000-0 -82083-3 0  9996,2 53394  53.2149 222.8959 0001480  85.2750  49.4702 15.08833941 61327,6917.899,95.438,540.788,538.74,0.0
53394.0,STARLINK-4544,PAYLOAD,2023-09-15 14:00:01,15.08842957,0.0001424,53.2148,221.3984,87.2847,59.0423,-0.00083396,-0.00013537,0.0,0 STARLINK-4544,1 53394U 22097G   23258.58334491 -.00013537  00000-0 -83396-3 0  9994,2 53394  53.2148 221.3984 0001424  87.2847  59.0423 15.08842957  5811,6917.871,95.437,540.721,538.751,0.0
53394.0,STARLINK-4544,PAYLOAD,2023-09-15 22:00:00,15.08842351,0.0001511,53.2152,219.9013,93.6241,64.2881,0.0012867,0.0002025,0.0,0 STARLINK-4544,1 53394U 22097G   23258.91667824  .00020250  00000-0  12867-2 0  9992,2 53394  53.2152 219.9013 0001511  93.6241  64.2881 15.08842351 61421,6917.873,95.437,540.783,538.693,0.0
53394.0,STARLINK-4544,PAYLOAD,2023-09-16 14:00:01,15.08837581,0.0001448,53.2154,216.909,94.8774,86.2404,-0.00065224,-0.00010653,0.0,0 STARLINK-4544,1 53394U 22097G   23259.58334491 -.00010653  00000-0 -65224-3 0  9991,2 53394  53.2154 216.9090 0001448  94.8774  86.2404 15.08837581 61523,6917.888,95.438,540.754,538.751,0.0
53394.0,STARLINK-4544,PAYLOAD,2023-09-17 14:00:01,15.08827537,0.0001325,53.216,212.4198,90.6715,125.2192,-0.00035339,-5.906e-05,0.0,0 STARLINK-4544,1 53394U 22097G   23260.58334491 -.00005906  00000-0 -35339-3 0  9992,2 53394  53.2160 212.4198 0001325  90.6715 125.2192 15.08827537  5866,6917.918,95.438,540.7,538.867,0.0
53394.0,STARLINK-4544,PAYLOAD,2023-09-18 01:45:57,15.08750266,0.0002036,53.2177,210.2168,102.6771,257.4449,0.0012922,0.00020287,0.0,0 STARLINK-4544,1 53394U 22097G   23261.07358374  .00020287  00000-0  12922-2 0  9992,2 53394  53.2177 210.2168 0002036 102.6771 257.4449 15.08750266 61750,6918.155,95.443,541.428,538.611,0.0
